STARLINK-1549           
1 46074U 20055AZ  26068.79432574 -.00000113  00000+0  11304-4 0  9994
2 46074  53.0536  96.1488 0001365  91.9931 268.1215 15.06410220309310
CENTAURI-6              
1 59451U 24066K   26068.32290132  .00007311  00000+0  52686-3 0  9997
2 59451  45.6063  55.7055 0002534 285.4438  74.6166 15.04786474105074
